STARLINK-30259          
1 57521U 23115A   26068.18220055 -.00004096  00000+0 -14312-3 0  9991
2 57521  42.9984   4.4614 0001029 277.8055  82.2680 15.26733515143498
GESAT GEN1              
1 62612U 25009D   26068.72662138  .00010041  00000+0  38326-3 0  9990
2 62612  97.4058 151.4598 0000888  98.3547 261.7793 15.26847505 63732
